{"type":"FeatureCollection","features":[{"type":"Feature","geometry":{"type":"Point","coordinates":[91.85006393407085,24.888822806658897]},"id":"1_1_1_1_0","properties":{"Class":0,"class":0}},{"type":"Feature","geometry":{"type":"Point","coordinates":[91.85065402005412,24.88868655287793]},"id":"1_1_1_1_1","properties":{"Class":0,"class":0}},{"type":"Feature","geometry":{"type":"Point","coordinates":[91.85104025815227,24.88858922865663]},"id":"1_1_1_1_2","properties":{"Class":0,"class":0}},{"type":"Feature","geometry":{"type":"Point","coordinates":[91.85168398831584,24.888404312424854]},"id":"1_1_1_1_3","properties":{"Class":0,"class":0}},{"type":"Feature","geometry":{"type":"Point","coordinates":[91.85314311001996,24.888433509743013]},"id":"1_1_1_1_4","properties":{"Class":0,"class":0}},{"type":"Feature","geometry":{"type":"Point","coordinates":[91.85379756901958,24.888345917767808]},"id":"1_1_1_1_5","properties":{"Class":0,"class":0}},{"type":"Feature","geometry":{"type":"Point","coordinates":[91.85464514706828,24.888131803789133]},"id":"1_1_1_1_6","properties":{"Class":0,"class":0}},{"type":"Feature","geometry":{"type":"Point","coordinates":[91.85540689442851,24.88790795695997]},"id":"1_1_1_1_7","properties":{"Class":0,"class":0}},{"type":"Feature","geometry":{"type":"Point","coordinates":[91.85669435475566,24.887635447229034]},"id":"1_1_1_1_8","properties":{"Class":0,"class":0}},{"type":"Feature","geometry":{"type":"Point","coordinates":[91.85789598439433,24.887353204373788]},"id":"1_1_1_1_9","properties":{"Class":0,"class":0}},{"type":"Feature","geometry":{"type":"Point","coordinates":[91.85879720662334,24.887158553753004]},"id":"1_1_1_1_10","properties":{"Class":0,"class":0}},{"type":"Feature","geometry":{"type":"Point","coordinates":[91.85928000424602,24.88703203068497]},"id":"1_1_1_1_11","properties":{"Class":0,"class":0}},{"type":"Feature","geometry":{"type":"Point","coordinates":[91.86062110875346,24.8869444377158]},"id":"1_1_1_1_12","properties":{"Class":0,"class":0}},{"type":"Feature","geometry":{"type":"Point","coordinates":[91.8615437886546,24.8869444377158]},"id":"1_1_1_1_13","properties":{"Class":0,"class":0}},{"type":"Feature","geometry":{"type":"Point","coordinates":[91.86253084157208,24.886963902825443]},"id":"1_1_1_1_14","properties":{"Class":0,"class":0}},{"type":"Feature","geometry":{"type":"Point","coordinates":[91.86377538655498,24.887061228327582]},"id":"1_1_1_1_15","properties":{"Class":0,"class":0}},{"type":"Feature","geometry":{"type":"Point","coordinates":[91.8645907780955,24.887216948971453]},"id":"1_1_1_1_16","properties":{"Class":0,"class":0}},{"type":"Feature","geometry":{"type":"Point","coordinates":[91.86574949238994,24.887372669418994]},"id":"1_1_1_1_17","properties":{"Class":0,"class":0}},{"type":"Feature","geometry":{"type":"Point","coordinates":[91.86512721989848,24.887236414038135]},"id":"1_1_1_1_18","properties":{"Class":0,"class":0}},{"type":"Feature","geometry":{"type":"Point","coordinates":[91.8648053548167,24.88723641403814]},"id":"1_1_1_1_19","properties":{"Class":0,"class":0}},{"type":"Feature","geometry":{"type":"Point","coordinates":[91.86476243947246,24.88719748390172]},"id":"1_1_1_1_20","properties":{"Class":0,"class":0}},{"type":"Feature","geometry":{"type":"Point","coordinates":[91.86534179661967,24.887158553753004]},"id":"1_1_1_1_21","properties":{"Class":0,"class":0}},{"type":"Feature","geometry":{"type":"Point","coordinates":[91.8657065770457,24.887275344162298]},"id":"1_1_1_1_22","properties":{"Class":0,"class":0}},{"type":"Feature","geometry":{"type":"Point","coordinates":[91.84298290227153,24.88904665182987]},"id":"1_1_1_1_23","properties":{"Class":0,"class":0}},{"type":"Feature","geometry":{"type":"Point","coordinates":[91.84345497105816,24.888774144611514]},"id":"1_1_1_1_24","properties":{"Class":0,"class":0}},{"type":"Feature","geometry":{"type":"Point","coordinates":[91.84360517476298,24.888813074250958]},"id":"1_1_1_1_25","properties":{"Class":0,"class":0}},{"type":"Feature","geometry":{"type":"Point","coordinates":[91.84465660069682,24.88887146868712]},"id":"1_1_1_1_26","properties":{"Class":0,"class":0}},{"type":"Feature","geometry":{"type":"Point","coordinates":[91.84502138112285,24.888774144611517]},"id":"1_1_1_1_27","properties":{"Class":0,"class":0}},{"type":"Feature","geometry":{"type":"Point","coordinates":[91.84508575413922,24.888774144611517]},"id":"1_1_1_1_28","properties":{"Class":0,"class":0}},{"type":"Feature","geometry":{"type":"Point","coordinates":[91.84600843404033,24.888754679787215]},"id":"1_1_1_1_29","properties":{"Class":0,"class":0}},{"type":"Feature","geometry":{"type":"Point","coordinates":[91.85804618809917,24.887080693418795]},"id":"1_1_1_1_30","properties":{"Class":0,"class":0}},{"type":"Feature","geometry":{"type":"Point","coordinates":[91.85740245793559,24.887216948971453]},"id":"1_1_1_1_31","properties":{"Class":0,"class":0}},{"type":"Feature","geometry":{"type":"Point","coordinates":[91.87549025621136,24.89456961716563]},"id":"1_1_1_1_32","properties":{"Class":0,"class":0}},{"type":"Feature","geometry":{"type":"Point","coordinates":[91.87572629060467,24.89456961716563]},"id":"1_1_1_1_33","properties":{"Class":0,"class":0}},{"type":"Feature","geometry":{"type":"Point","coordinates":[91.87600524034222,24.894491761504124]},"id":"1_1_1_1_34","properties":{"Class":0,"class":0}},{"type":"Feature","geometry":{"type":"Point","coordinates":[91.87594086732587,24.894316586086248]},"id":"1_1_1_1_35","properties":{"Class":0,"class":0}},{"type":"Feature","geometry":{"type":"Point","coordinates":[91.87589795198163,24.89414141041986]},"id":"1_1_1_1_36","properties":{"Class":0,"class":0}},{"type":"Feature","geometry":{"type":"Point","coordinates":[91.87600524034222,24.89398569850773]},"id":"1_1_1_1_37","properties":{"Class":0,"class":0}},{"type":"Feature","geometry":{"type":"Point","coordinates":[91.87600524034222,24.89382998639922]},"id":"1_1_1_1_38","properties":{"Class":0,"class":0}},{"type":"Feature","geometry":{"type":"Point","coordinates":[91.87579066362103,24.893635345987427]},"id":"1_1_1_1_39","properties":{"Class":0,"class":0}},{"type":"Feature","geometry":{"type":"Point","coordinates":[91.87559754457196,24.89351856159308]},"id":"1_1_1_1_40","properties":{"Class":0,"class":0}},{"type":"Feature","geometry":{"type":"Point","coordinates":[91.87551171388348,24.893713202188987]},"id":"1_1_1_1_41","properties":{"Class":0,"class":0}},{"type":"Feature","geometry":{"type":"Point","coordinates":[91.87555462922772,24.89414141041986]},"id":"1_1_1_1_42","properties":{"Class":0,"class":0}},{"type":"Feature","geometry":{"type":"Point","coordinates":[91.87561900224408,24.894413905793527]},"id":"1_1_1_1_43","properties":{"Class":0,"class":0}},{"type":"Feature","geometry":{"type":"Point","coordinates":[91.87566191758833,24.894277658181867]},"id":"1_1_1_1_44","properties":{"Class":0,"class":0}},{"type":"Feature","geometry":{"type":"Point","coordinates":[91.9321385106059,24.86474730839803]},"id":"1_1_1_1_45","properties":{"Class":0,"class":0}},{"type":"Feature","geometry":{"type":"Point","coordinates":[91.93385512437543,24.86443581027685]},"id":"1_1_1_1_46","properties":{"Class":0,"class":0}},{"type":"Feature","geometry":{"type":"Point","coordinates":[91.93668753709515,24.86396856162356]},"id":"1_1_1_1_47","properties":{"Class":0,"class":0}},{"type":"Feature","geometry":{"type":"Point","coordinates":[91.95230872239789,24.855791424367876]},"id":"1_1_1_1_48","properties":{"Class":0,"class":0}},{"type":"Feature","geometry":{"type":"Point","coordinates":[92.012304373643,24.871366457921667]},"id":"1_1_1_1_49","properties":{"Class":0,"class":0}},{"type":"Feature","geometry":{"type":"Point","coordinates":[92.05109984483441,24.85812780447281]},"id":"1_1_1_1_50","properties":{"Class":0,"class":0}},{"type":"Feature","geometry":{"type":"Point","coordinates":[92.05092818345746,24.857115378513026]},"id":"1_1_1_1_51","properties":{"Class":0,"class":0}},{"type":"Feature","geometry":{"type":"Point","coordinates":[92.05135733689984,24.856570222640233]},"id":"1_1_1_1_52","properties":{"Class":0,"class":0}},{"type":"Feature","geometry":{"type":"Point","coordinates":[92.0515289982768,24.85618082411705]},"id":"1_1_1_1_53","properties":{"Class":0,"class":0}},{"type":"Feature","geometry":{"type":"Point","coordinates":[92.05324561204633,24.859373855814646]},"id":"1_1_1_1_54","properties":{"Class":0,"class":0}},{"type":"Feature","geometry":{"type":"Point","coordinates":[92.05410391893109,24.85921810008352]},"id":"1_1_1_1_55","properties":{"Class":0,"class":0}},{"type":"Feature","geometry":{"type":"Point","coordinates":[92.05324561204633,24.858127804472815]},"id":"1_1_1_1_56","properties":{"Class":0,"class":0}},{"type":"Feature","geometry":{"type":"Point","coordinates":[92.05513388719281,24.86474730839803]},"id":"1_1_1_1_57","properties":{"Class":0,"class":0}},{"type":"Feature","geometry":{"type":"Point","coordinates":[92.05573470201215,24.864825182805692]},"id":"1_1_1_1_58","properties":{"Class":0,"class":0}},{"type":"Feature","geometry":{"type":"Point","coordinates":[92.05573470201215,24.863579186396898]},"id":"1_1_1_1_59","properties":{"Class":0,"class":0}},{"type":"Feature","geometry":{"type":"Point","coordinates":[92.05667883958539,24.862488929238616]},"id":"1_1_1_1_60","properties":{"Class":0,"class":0}},{"type":"Feature","geometry":{"type":"Point","coordinates":[92.05848128404341,24.86350131120441]},"id":"1_1_1_1_61","properties":{"Class":0,"class":0}},{"type":"Feature","geometry":{"type":"Point","coordinates":[92.05830962266644,24.866772027054957]},"id":"1_1_1_1_62","properties":{"Class":0,"class":0}},{"type":"Feature","geometry":{"type":"Point","coordinates":[92.05779463853558,24.86786224644266]},"id":"1_1_1_1_63","properties":{"Class":0,"class":0}},{"type":"Feature","geometry":{"type":"Point","coordinates":[92.0559063633891,24.86903032797393]},"id":"1_1_1_1_64","properties":{"Class":0,"class":0}},{"type":"Feature","geometry":{"type":"Point","coordinates":[92.05530554856976,24.8692639429556]},"id":"1_1_1_1_65","properties":{"Class":0,"class":0}},{"type":"Feature","geometry":{"type":"Point","coordinates":[92.10800928153364,24.865654724055208]},"id":"1_1_1_1_66","properties":{"Class":0,"class":0}},{"type":"Feature","geometry":{"type":"Point","coordinates":[92.1099833873686,24.866199839877638]},"id":"1_1_1_1_67","properties":{"Class":0,"class":0}},{"type":"Feature","geometry":{"type":"Point","coordinates":[92.11144250907272,24.866667080098054]},"id":"1_1_1_1_68","properties":{"Class":0,"class":0}},{"type":"Feature","geometry":{"type":"Point","coordinates":[92.11375993766157,24.867523682582156]},"id":"1_1_1_1_69","properties":{"Class":0,"class":0}},{"type":"Feature","geometry":{"type":"Point","coordinates":[91.38027289636798,25.15357466118989]},"id":"1_1_1_1_70","properties":{"Class":0,"class":0}},{"type":"Feature","geometry":{"type":"Point","coordinates":[91.38173201807209,25.153458123862016]},"id":"1_1_1_1_71","properties":{"Class":0,"class":0}},{"type":"Feature","geometry":{"type":"Point","coordinates":[91.38336280115314,25.15376888982231]},"id":"1_1_1_1_72","properties":{"Class":0,"class":0}},{"type":"Feature","geometry":{"type":"Point","coordinates":[91.38486483820148,25.153225048872372]},"id":"1_1_1_1_73","properties":{"Class":0,"class":0}},{"type":"Feature","geometry":{"type":"Point","coordinates":[91.38327697046466,25.15213735970067]},"id":"1_1_1_1_74","properties":{"Class":0,"class":0}},{"type":"Feature","geometry":{"type":"Point","coordinates":[91.3815174413509,25.15163235786095]},"id":"1_1_1_1_75","properties":{"Class":0,"class":0}},{"type":"Feature","geometry":{"type":"Point","coordinates":[91.38031581171222,25.150505807764308]},"id":"1_1_1_1_76","properties":{"Class":0,"class":0}},{"type":"Feature","geometry":{"type":"Point","coordinates":[91.37915709741779,25.14899077571975]},"id":"1_1_1_1_77","properties":{"Class":0,"class":0}},{"type":"Feature","geometry":{"type":"Point","coordinates":[91.3787279439754,25.147475724867274]},"id":"1_1_1_1_78","properties":{"Class":0,"class":0}},{"type":"Feature","geometry":{"type":"Point","coordinates":[91.37829879053302,25.14599950338262]},"id":"1_1_1_1_79","properties":{"Class":0,"class":0}},{"type":"Feature","geometry":{"type":"Point","coordinates":[91.3807449651546,25.143047006851322]},"id":"1_1_1_1_80","properties":{"Class":0,"class":0}},{"type":"Feature","geometry":{"type":"Point","coordinates":[91.38078788049884,25.144251323270797]},"id":"1_1_1_1_81","properties":{"Class":0,"class":0}},{"type":"Feature","geometry":{"type":"Point","coordinates":[91.38070204981037,25.145844110608746]},"id":"1_1_1_1_82","properties":{"Class":0,"class":0}},{"type":"Feature","geometry":{"type":"Point","coordinates":[91.38306239374347,25.148913081261764]},"id":"1_1_1_1_83","properties":{"Class":0,"class":0}},{"type":"Feature","geometry":{"type":"Point","coordinates":[91.38327697046466,25.150195033493656]},"id":"1_1_1_1_84","properties":{"Class":0,"class":0}},{"type":"Feature","geometry":{"type":"Point","coordinates":[91.3818607641048,25.150428114270817]},"id":"1_1_1_1_85","properties":{"Class":0,"class":0}},{"type":"Feature","geometry":{"type":"Point","coordinates":[91.38134577997394,25.149029622930193]},"id":"1_1_1_1_86","properties":{"Class":0,"class":0}},{"type":"Feature","geometry":{"type":"Point","coordinates":[91.38117411859699,25.148058438959364]},"id":"1_1_1_1_87","properties":{"Class":0,"class":0}},{"type":"Feature","geometry":{"type":"Point","coordinates":[91.38147452600666,25.147747658456456]},"id":"1_1_1_1_88","properties":{"Class":0,"class":0}},{"type":"Feature","geometry":{"type":"Point","coordinates":[91.38147452600666,25.141609581378237]},"id":"1_1_1_1_89","properties":{"Class":0,"class":0}},{"type":"Feature","geometry":{"type":"Point","coordinates":[91.38224700220294,25.141104535977842]},"id":"1_1_1_1_90","properties":{"Class":0,"class":0}},{"type":"Feature","geometry":{"type":"Point","coordinates":[91.38482192285724,25.140016738788535]},"id":"1_1_1_1_91","properties":{"Class":0,"class":0}},{"type":"Feature","geometry":{"type":"Point","coordinates":[91.07816921382809,25.037752196106652]},"id":"1_1_1_1_92","properties":{"Class":0,"class":0}},{"type":"Feature","geometry":{"type":"Point","coordinates":[91.07872711330319,25.037402252640568]},"id":"1_1_1_1_93","properties":{"Class":0,"class":0}},{"type":"Feature","geometry":{"type":"Point","coordinates":[91.0788558593359,25.037207839172456]},"id":"1_1_1_1_94","properties":{"Class":0,"class":0}},{"type":"Feature","geometry":{"type":"Point","coordinates":[91.07911335140133,25.036935659799436]},"id":"1_1_1_1_95","properties":{"Class":0,"class":0}},{"type":"Feature","geometry":{"type":"Point","coordinates":[91.07979999690914,25.037441135297207]},"id":"1_1_1_1_96","properties":{"Class":0,"class":0}},{"type":"Feature","geometry":{"type":"Point","coordinates":[91.07984291225338,25.0375577831932]},"id":"1_1_1_1_97","properties":{"Class":0,"class":0}},{"type":"Feature","geometry":{"type":"Point","coordinates":[91.0797570815649,25.03681901131185]},"id":"1_1_1_1_98","properties":{"Class":0,"class":0}},{"type":"Feature","geometry":{"type":"Point","coordinates":[91.07949958949948,25.03658571400387]},"id":"1_1_1_1_99","properties":{"Class":0,"class":0}},{"type":"Feature","geometry":{"type":"Point","coordinates":[91.07967125087643,25.0363912992416]},"id":"1_1_1_1_100","properties":{"Class":0,"class":0}},{"type":"Feature","geometry":{"type":"Point","coordinates":[91.1235073623447,25.030208429299467]},"id":"1_1_1_1_101","properties":{"Class":0,"class":0}},{"type":"Feature","geometry":{"type":"Point","coordinates":[91.12421546552463,25.029761251641588]},"id":"1_1_1_1_102","properties":{"Class":0,"class":0}},{"type":"Feature","geometry":{"type":"Point","coordinates":[91.12443004224582,25.02956682606461]},"id":"1_1_1_1_103","properties":{"Class":0,"class":0}},{"type":"Feature","geometry":{"type":"Point","coordinates":[91.12477336499973,25.029275187121574]},"id":"1_1_1_1_104","properties":{"Class":0,"class":0}},{"type":"Feature","geometry":{"type":"Point","coordinates":[91.12530980680272,25.028866891436827]},"id":"1_1_1_1_105","properties":{"Class":0,"class":0}},{"type":"Feature","geometry":{"type":"Point","coordinates":[91.12550292585178,25.02915853135025]},"id":"1_1_1_1_106","properties":{"Class":0,"class":0}},{"type":"Feature","geometry":{"type":"Point","coordinates":[91.12550292585178,25.028964104818307]},"id":"1_1_1_1_107","properties":{"Class":0,"class":0}},{"type":"Feature","geometry":{"type":"Point","coordinates":[91.12563167188449,25.02851692262574]},"id":"1_1_1_1_108","properties":{"Class":0,"class":0}},{"type":"Feature","geometry":{"type":"Point","coordinates":[91.12601790998264,25.02803085317679]},"id":"1_1_1_1_109","properties":{"Class":0,"class":0}},{"type":"Feature","geometry":{"type":"Point","coordinates":[91.12668309781833,25.027739210583267]},"id":"1_1_1_1_110","properties":{"Class":0,"class":0}},{"type":"Feature","geometry":{"type":"Point","coordinates":[91.12730537030978,25.027389238556136]},"id":"1_1_1_1_111","properties":{"Class":0,"class":0}},{"type":"Feature","geometry":{"type":"Point","coordinates":[91.12747703168674,25.02727258099197]},"id":"1_1_1_1_112","properties":{"Class":0,"class":0}},{"type":"Feature","geometry":{"type":"Point","coordinates":[91.11366172325673,24.94471067728909]},"id":"1_1_1_1_113","properties":{"Class":0,"class":0}},{"type":"Feature","geometry":{"type":"Point","coordinates":[91.11376901161732,24.944146452080645]},"id":"1_1_1_1_114","properties":{"Class":0,"class":0}},{"type":"Feature","geometry":{"type":"Point","coordinates":[91.11376901161732,24.94383515430766]},"id":"1_1_1_1_115","properties":{"Class":0,"class":0}},{"type":"Feature","geometry":{"type":"Point","coordinates":[91.11376901161732,24.94330983753191]},"id":"1_1_1_1_116","properties":{"Class":0,"class":0}},{"type":"Feature","geometry":{"type":"Point","coordinates":[91.11376901161732,24.94290125626871]},"id":"1_1_1_1_117","properties":{"Class":0,"class":0}},{"type":"Feature","geometry":{"type":"Point","coordinates":[91.11415524971548,24.94601422219822]},"id":"1_1_1_1_118","properties":{"Class":0,"class":0}},{"type":"Feature","geometry":{"type":"Point","coordinates":[91.11469169151844,24.946889729691467]},"id":"1_1_1_1_119","properties":{"Class":0,"class":0}},{"type":"Feature","geometry":{"type":"Point","coordinates":[91.1144127417809,24.946461704583374]},"id":"1_1_1_1_120","properties":{"Class":0,"class":0}},{"type":"Feature","geometry":{"type":"Point","coordinates":[91.11462731850209,24.946422793136165]},"id":"1_1_1_1_121","properties":{"Class":0,"class":0}},{"type":"Feature","geometry":{"type":"Point","coordinates":[91.11552854073109,24.947570675661527]},"id":"1_1_1_1_122","properties":{"Class":0,"class":0}},{"type":"Feature","geometry":{"type":"Point","coordinates":[91.12325330269398,24.941228004576743]},"id":"1_1_1_1_123","properties":{"Class":0,"class":0}},{"type":"Feature","geometry":{"type":"Point","coordinates":[91.12318892967762,24.940975069204132]},"id":"1_1_1_1_124","properties":{"Class":0,"class":0}},{"type":"Feature","geometry":{"type":"Point","coordinates":[91.12366099846425,24.941364200331513]},"id":"1_1_1_1_125","properties":{"Class":0,"class":0}},{"type":"Feature","geometry":{"type":"Point","coordinates":[91.12413306725087,24.941772786692447]},"id":"1_1_1_1_126","properties":{"Class":0,"class":0}},{"type":"Feature","geometry":{"type":"Point","coordinates":[91.12340350639882,24.941130721802573]},"id":"1_1_1_1_127","properties":{"Class":0,"class":0}},{"type":"Feature","geometry":{"type":"Point","coordinates":[91.12301726830069,24.940916699429025]},"id":"1_1_1_1_128","properties":{"Class":0,"class":0}},{"type":"Feature","geometry":{"type":"Point","coordinates":[91.12812419426503,24.944088083808136]},"id":"1_1_1_1_129","properties":{"Class":0,"class":0}},{"type":"Feature","geometry":{"type":"Point","coordinates":[91.1278667021996,24.944613397265126]},"id":"1_1_1_1_130","properties":{"Class":0,"class":0}},{"type":"Feature","geometry":{"type":"Point","coordinates":[91.12769504082264,24.94449666113495]},"id":"1_1_1_1_131","properties":{"Class":0,"class":0}},{"type":"Feature","geometry":{"type":"Point","coordinates":[91.1276521254784,24.944263188542706]},"id":"1_1_1_1_132","properties":{"Class":0,"class":0}},{"type":"Feature","geometry":{"type":"Point","coordinates":[91.12814565193715,24.943971347180142]},"id":"1_1_1_1_133","properties":{"Class":0,"class":0}},{"type":"Feature","geometry":{"type":"Point","coordinates":[91.12827439796986,24.943874066572292]},"id":"1_1_1_1_134","properties":{"Class":0,"class":0}},{"type":"Feature","geometry":{"type":"Point","coordinates":[91.12857480537953,24.943796242030718]},"id":"1_1_1_1_135","properties":{"Class":0,"class":0}},{"type":"Feature","geometry":{"type":"Point","coordinates":[91.85969393312666,24.901854152682095]},"id":"1_1_1_2_0","properties":{"Cass":4,"class":1}},{"type":"Feature","geometry":{"type":"Point","coordinates":[91.85990850984786,24.90200985466935]},"id":"1_1_1_2_1","properties":{"Cass":4,"class":1}},{"type":"Feature","geometry":{"type":"Point","coordinates":[91.870379853842,24.889397357367233]},"id":"1_1_1_2_2","properties":{"Cass":4,"class":1}},{"type":"Feature","geometry":{"type":"Point","coordinates":[91.87119524538252,24.88943628681022]},"id":"1_1_1_2_3","properties":{"Cass":4,"class":1}},{"type":"Feature","geometry":{"type":"Point","coordinates":[91.86458628236983,24.89918772566731]},"id":"1_1_1_2_4","properties":{"Cass":4,"class":1}},{"type":"Feature","geometry":{"type":"Point","coordinates":[91.86499397814009,24.89918772566731]},"id":"1_1_1_2_5","properties":{"Cass":4,"class":1}},{"type":"Feature","geometry":{"type":"Point","coordinates":[91.865337300894,24.899265578367306]},"id":"1_1_1_2_6","properties":{"Cass":4,"class":1}},{"type":"Feature","geometry":{"type":"Point","coordinates":[91.86570208132002,24.899265578367306]},"id":"1_1_1_2_7","properties":{"Cass":4,"class":1}},{"type":"Feature","geometry":{"type":"Point","coordinates":[91.86598103105757,24.899304504698886]},"id":"1_1_1_2_8","properties":{"Cass":4,"class":1}},{"type":"Feature","geometry":{"type":"Point","coordinates":[91.86647455751631,24.89936289417323]},"id":"1_1_1_2_9","properties":{"Cass":4,"class":1}},{"type":"Feature","geometry":{"type":"Point","coordinates":[91.86681788027022,24.89938235732522]},"id":"1_1_1_2_10","properties":{"Cass":4,"class":1}},{"type":"Feature","geometry":{"type":"Point","coordinates":[91.8741456752989,24.897825295469257]},"id":"1_1_1_2_11","properties":{"Cass":4,"class":1}},{"type":"Feature","geometry":{"type":"Point","coordinates":[91.87438170969222,24.898097782711847]},"id":"1_1_1_2_12","properties":{"Cass":4,"class":1}},{"type":"Feature","geometry":{"type":"Point","coordinates":[91.87458555757735,24.898409195966874]},"id":"1_1_1_2_13","properties":{"Cass":4,"class":1}},{"type":"Feature","geometry":{"type":"Point","coordinates":[91.87474649011824,24.89870114517994]},"id":"1_1_1_2_14","properties":{"Cass":4,"class":1}},{"type":"Feature","geometry":{"type":"Point","coordinates":[91.87269728243086,24.89856490229975]},"id":"1_1_1_2_15","properties":{"Cass":4,"class":1}},{"type":"Feature","geometry":{"type":"Point","coordinates":[91.87269728243086,24.8984481225685]},"id":"1_1_1_2_16","properties":{"Cass":4,"class":1}},{"type":"Feature","geometry":{"type":"Point","coordinates":[91.85437243044112,24.911176462925507]},"id":"1_1_1_2_17","properties":{"Cass":4,"class":1}},{"type":"Feature","geometry":{"type":"Point","coordinates":[91.85540239870284,24.910865081886595]},"id":"1_1_1_2_18","properties":{"Cass":4,"class":1}},{"type":"Feature","geometry":{"type":"Point","coordinates":[91.85574572145674,24.91055370006179]},"id":"1_1_1_2_19","properties":{"Cass":4,"class":1}},{"type":"Feature","geometry":{"type":"Point","coordinates":[91.85608904421066,24.90977524206151]},"id":"1_1_1_2_20","properties":{"Cass":4,"class":1}},{"type":"Feature","geometry":{"type":"Point","coordinates":[91.89814608156416,24.914056700277314]},"id":"1_1_1_2_21","properties":{"Cass":4,"class":1}},{"type":"Feature","geometry":{"type":"Point","coordinates":[91.8984035736296,24.91109861773946]},"id":"1_1_1_2_22","properties":{"Cass":4,"class":1}},{"type":"Feature","geometry":{"type":"Point","coordinates":[91.8164567238066,24.826305819203874]},"id":"1_1_1_2_23","properties":{"Cass":4,"class":1}},{"type":"Feature","geometry":{"type":"Point","coordinates":[91.8164567238066,24.826013699002612]},"id":"1_1_1_2_24","properties":{"Cass":4,"class":1}},{"type":"Feature","geometry":{"type":"Point","coordinates":[91.71508785185975,24.87045456514797]},"id":"1_1_1_2_25","properties":{"Cass":4,"class":1}},{"type":"Feature","geometry":{"type":"Point","coordinates":[91.71500202117127,24.870182016918424]},"id":"1_1_1_2_26","properties":{"Cass":4,"class":1}},{"type":"Feature","geometry":{"type":"Point","coordinates":[91.71465869841737,24.869851064688874]},"id":"1_1_1_2_27","properties":{"Cass":4,"class":1}},{"type":"Feature","geometry":{"type":"Point","coordinates":[91.7135643571393,24.87014308140799]},"id":"1_1_1_2_28","properties":{"Cass":4,"class":1}},{"type":"Feature","geometry":{"type":"Point","coordinates":[91.71362873015565,24.86973425780805]},"id":"1_1_1_2_29","properties":{"Cass":4,"class":1}},{"type":"Feature","geometry":{"type":"Point","coordinates":[91.71210523543519,24.868507778895072]},"id":"1_1_1_2_30","properties":{"Cass":4,"class":1}},{"type":"Feature","geometry":{"type":"Point","coordinates":[91.71210523543519,24.868352034670266]},"id":"1_1_1_2_31","properties":{"Cass":4,"class":1}},{"type":"Feature","geometry":{"type":"Point","coordinates":[91.71219106612367,24.868137886040753]},"id":"1_1_1_2_32","properties":{"Cass":4,"class":1}},{"type":"Feature","geometry":{"type":"Point","coordinates":[91.71219106612367,24.868021077540998]},"id":"1_1_1_2_33","properties":{"Cass":4,"class":1}},{"type":"Feature","geometry":{"type":"Point","coordinates":[91.71219106612367,24.86792373704023]},"id":"1_1_1_2_34","properties":{"Cass":4,"class":1}},{"type":"Feature","geometry":{"type":"Point","coordinates":[91.70641193057224,24.896853677604224]},"id":"1_1_1_2_35","properties":{"Cass":4,"class":1}},{"type":"Feature","geometry":{"type":"Point","coordinates":[91.70645484591647,24.896308697025336]},"id":"1_1_1_2_36","properties":{"Cass":4,"class":1}},{"type":"Feature","geometry":{"type":"Point","coordinates":[91.67491206790133,24.931565588483995]},"id":"1_1_1_2_37","properties":{"Cass":4,"class":1}},{"type":"Feature","geometry":{"type":"Point","coordinates":[91.67491206790133,24.931721252968202]},"id":"1_1_1_2_38","properties":{"Cass":4,"class":1}},{"type":"Feature","geometry":{"type":"Point","coordinates":[91.67497644091769,24.93195474932588]},"id":"1_1_1_2_39","properties":{"Cass":4,"class":1}},{"type":"Feature","geometry":{"type":"Point","coordinates":[91.67497644091769,24.9322077032142]},"id":"1_1_1_2_40","properties":{"Cass":4,"class":1}},{"type":"Feature","geometry":{"type":"Point","coordinates":[91.67491206790133,24.932382824832793]},"id":"1_1_1_2_41","properties":{"Cass":4,"class":1}},{"type":"Feature","geometry":{"type":"Point","coordinates":[91.67559871340914,24.93355029593109]},"id":"1_1_1_2_42","properties":{"Cass":4,"class":1}},{"type":"Feature","geometry":{"type":"Point","coordinates":[91.67583474780247,24.933511380405985]},"id":"1_1_1_2_43","properties":{"Cass":4,"class":1}},{"type":"Feature","geometry":{"type":"Point","coordinates":[91.67583474780247,24.93337517597135]},"id":"1_1_1_2_44","properties":{"Cass":4,"class":1}},{"type":"Feature","geometry":{"type":"Point","coordinates":[91.67559871340914,24.93314168230465]},"id":"1_1_1_2_45","properties":{"Cass":4,"class":1}},{"type":"Feature","geometry":{"type":"Point","coordinates":[91.38819150939486,25.048311556354115]},"id":"1_1_1_2_46","properties":{"Cass":4,"class":1}},{"type":"Feature","geometry":{"type":"Point","coordinates":[91.38844900146027,25.04908913796748]},"id":"1_1_1_2_47","properties":{"Cass":4,"class":1}},{"type":"Feature","geometry":{"type":"Point","coordinates":[91.38896398559113,25.050722043302233]},"id":"1_1_1_2_48","properties":{"Cass":4,"class":1}},{"type":"Feature","geometry":{"type":"Point","coordinates":[91.38913564696809,25.052588194194364]},"id":"1_1_1_2_49","properties":{"Cass":4,"class":1}},{"type":"Feature","geometry":{"type":"Point","coordinates":[91.38896398559113,25.054843088617037]},"id":"1_1_1_2_50","properties":{"Cass":4,"class":1}},{"type":"Feature","geometry":{"type":"Point","coordinates":[91.38947896972199,25.056398164048936]},"id":"1_1_1_2_51","properties":{"Cass":4,"class":1}},{"type":"Feature","geometry":{"type":"Point","coordinates":[91.37686185851594,25.05694243578855]},"id":"1_1_1_2_52","properties":{"Cass":4,"class":1}},{"type":"Feature","geometry":{"type":"Point","coordinates":[91.3927405358841,25.061996272219627]},"id":"1_1_1_2_53","properties":{"Cass":4,"class":1}},{"type":"Feature","geometry":{"type":"Point","coordinates":[91.38561658874055,25.06005251364375]},"id":"1_1_1_2_54","properties":{"Cass":4,"class":1}},{"type":"Feature","geometry":{"type":"Point","coordinates":[91.38561658874055,25.059197250102102]},"id":"1_1_1_2_55","properties":{"Cass":4,"class":1}},{"type":"Feature","geometry":{"type":"Point","coordinates":[91.38604574218293,25.058808491973455]},"id":"1_1_1_2_56","properties":{"Cass":4,"class":1}},{"type":"Feature","geometry":{"type":"Point","coordinates":[91.38750486388703,25.059897011625633]},"id":"1_1_1_2_57","properties":{"Cass":4,"class":1}},{"type":"Feature","geometry":{"type":"Point","coordinates":[91.38750486388703,25.059430504387276]},"id":"1_1_1_2_58","properties":{"Cass":4,"class":1}},{"type":"Feature","geometry":{"type":"Point","coordinates":[91.40149526610871,25.06386225144226]},"id":"1_1_1_2_59","properties":{"Cass":4,"class":1}},{"type":"Feature","geometry":{"type":"Point","coordinates":[91.40149526610871,25.063551256878686]},"id":"1_1_1_2_60","properties":{"Cass":4,"class":1}},{"type":"Feature","geometry":{"type":"Point","coordinates":[91.4026110650589,25.064639734397367]},"id":"1_1_1_2_61","properties":{"Cass":4,"class":1}},{"type":"Feature","geometry":{"type":"Point","coordinates":[91.37079076248587,25.03558312104716]},"id":"1_1_1_2_62","properties":{"Cass":4,"class":1}},{"type":"Feature","geometry":{"type":"Point","coordinates":[91.38576821762503,25.03113090934492]},"id":"1_1_1_2_63","properties":{"Cass":4,"class":1}},{"type":"Feature","geometry":{"type":"Point","coordinates":[91.3858540483135,25.030897601219927]},"id":"1_1_1_2_64","properties":{"Cass":4,"class":1}},{"type":"Feature","geometry":{"type":"Point","coordinates":[91.3856180139202,25.03080038937022]},"id":"1_1_1_2_65","properties":{"Cass":4,"class":1}},{"type":"Feature","geometry":{"type":"Point","coordinates":[91.38533906418265,25.030780946991047]},"id":"1_1_1_2_66","properties":{"Cass":4,"class":1}},{"type":"Feature","geometry":{"type":"Point","coordinates":[91.38523177582205,25.03099481299258]},"id":"1_1_1_2_67","properties":{"Cass":4,"class":1}},{"type":"Feature","geometry":{"type":"Point","coordinates":[91.3785647183819,25.041894167178455]},"id":"1_1_1_2_68","properties":{"Cass":4,"class":1}},{"type":"Feature","geometry":{"type":"Point","coordinates":[91.3785647183819,25.042088573218376]},"id":"1_1_1_2_69","properties":{"Cass":4,"class":1}},{"type":"Feature","geometry":{"type":"Point","coordinates":[91.60138179361842,25.13668393434415]},"id":"1_1_2_0","properties":{"Class":3,"class":2}},{"type":"Feature","geometry":{"type":"Point","coordinates":[91.6021542698147,25.135751503588804]},"id":"1_1_2_1","properties":{"Class":3,"class":2}},{"type":"Feature","geometry":{"type":"Point","coordinates":[91.60241176188013,25.13458595513243]},"id":"1_1_2_2","properties":{"Class":3,"class":2}},{"type":"Feature","geometry":{"type":"Point","coordinates":[91.59863521158717,25.127903262603514]},"id":"1_1_2_3","properties":{"Class":3,"class":2}},{"type":"Feature","geometry":{"type":"Point","coordinates":[91.59872104227564,25.12611596891499]},"id":"1_1_2_4","properties":{"Class":3,"class":2}},{"type":"Feature","geometry":{"type":"Point","coordinates":[91.60661746561549,25.128369508830435]},"id":"1_1_2_5","properties":{"Class":3,"class":2}},{"type":"Feature","geometry":{"type":"Point","coordinates":[91.60524417459986,25.127903262603514]},"id":"1_1_2_6","properties":{"Class":3,"class":2}},{"type":"Feature","geometry":{"type":"Point","coordinates":[91.59571696817896,25.138548774494677]},"id":"1_1_2_7","properties":{"Class":3,"class":2}},{"type":"Feature","geometry":{"type":"Point","coordinates":[91.59528781473658,25.137150147051848]},"id":"1_1_2_8","properties":{"Class":3,"class":2}},{"type":"Feature","geometry":{"type":"Point","coordinates":[91.55880977213404,25.137694059627723]},"id":"1_1_2_9","properties":{"Class":3,"class":2}},{"type":"Feature","geometry":{"type":"Point","coordinates":[91.558981433511,25.136917040920494]},"id":"1_1_2_10","properties":{"Class":3,"class":2}},{"type":"Feature","geometry":{"type":"Point","coordinates":[91.4199786335232,25.11294358519713]},"id":"1_1_2_11","properties":{"Class":3,"class":2}},{"type":"Feature","geometry":{"type":"Point","coordinates":[91.42023612558863,25.112827009092033]},"id":"1_1_2_12","properties":{"Class":3,"class":2}},{"type":"Feature","geometry":{"type":"Point","coordinates":[91.41036559641383,25.114459064446343]},"id":"1_1_2_13","properties":{"Class":3,"class":2}},{"type":"Feature","geometry":{"type":"Point","coordinates":[91.41512919962427,25.106687177121422]},"id":"1_1_2_14","properties":{"Class":3,"class":2}},{"type":"Feature","geometry":{"type":"Point","coordinates":[91.41521503031275,25.106220848171194]},"id":"1_1_2_15","properties":{"Class":3,"class":2}},{"type":"Feature","geometry":{"type":"Point","coordinates":[91.41603042185328,25.105055018015076]},"id":"1_1_2_16","properties":{"Class":3,"class":2}},{"type":"Feature","geometry":{"type":"Point","coordinates":[91.4251284748318,25.113137878458545]},"id":"1_1_2_17","properties":{"Class":3,"class":2}},{"type":"Feature","geometry":{"type":"Point","coordinates":[91.42564345896265,25.113137878458545]},"id":"1_1_2_18","properties":{"Class":3,"class":2}},{"type":"Feature","geometry":{"type":"Point","coordinates":[91.4225535541775,25.12059850606766]},"id":"1_1_2_19","properties":{"Class":3,"class":2}},{"type":"Feature","geometry":{"type":"Point","coordinates":[91.42324019968531,25.119899091576233]},"id":"1_1_2_20","properties":{"Class":3,"class":2}},{"type":"Feature","geometry":{"type":"Point","coordinates":[91.37174178659937,25.097049350765413]},"id":"1_1_2_21","properties":{"Class":3,"class":2}},{"type":"Feature","geometry":{"type":"Point","coordinates":[91.3716559559109,25.095961161367786]},"id":"1_1_2_22","properties":{"Class":3,"class":2}},{"type":"Feature","geometry":{"type":"Point","coordinates":[91.3716559559109,25.09526160592928]},"id":"1_1_2_23","properties":{"Class":3,"class":2}},{"type":"Feature","geometry":{"type":"Point","coordinates":[91.37157012522242,25.09448431741718]},"id":"1_1_2_24","properties":{"Class":3,"class":2}},{"type":"Feature","geometry":{"type":"Point","coordinates":[91.3719992786648,25.092307883311438]},"id":"1_1_2_25","properties":{"Class":3,"class":2}},{"type":"Feature","geometry":{"type":"Point","coordinates":[91.3804106861355,25.089431821720456]},"id":"1_1_2_26","properties":{"Class":3,"class":2}},{"type":"Feature","geometry":{"type":"Point","coordinates":[91.38066817820095,25.08857676334692]},"id":"1_1_2_27","properties":{"Class":3,"class":2}},{"type":"Feature","geometry":{"type":"Point","coordinates":[91.42375518381618,25.098448437195856]},"id":"1_1_2_28","properties":{"Class":3,"class":2}},{"type":"Feature","geometry":{"type":"Point","coordinates":[91.42521430552027,25.097437987490103]},"id":"1_1_2_29","properties":{"Class":3,"class":2}},{"type":"Feature","geometry":{"type":"Point","coordinates":[91.42667342722437,25.09767116893225]},"id":"1_1_2_30","properties":{"Class":3,"class":2}},{"type":"Feature","geometry":{"type":"Point","coordinates":[91.51252633270813,25.02991586046517]},"id":"1_1_2_31","properties":{"Class":3,"class":2}},{"type":"Feature","geometry":{"type":"Point","coordinates":[91.51072388825013,25.028593762132715]},"id":"1_1_2_32","properties":{"Class":3,"class":2}},{"type":"Feature","geometry":{"type":"Point","coordinates":[91.51132470306946,25.02758273614946]},"id":"1_1_2_33","properties":{"Class":3,"class":2}},{"type":"Feature","geometry":{"type":"Point","coordinates":[91.51132470306946,25.02688279020465]},"id":"1_1_2_34","properties":{"Class":3,"class":2}},{"type":"Feature","geometry":{"type":"Point","coordinates":[91.51055222687317,25.02688279020465]},"id":"1_1_2_35","properties":{"Class":3,"class":2}},{"type":"Feature","geometry":{"type":"Point","coordinates":[91.50523072418764,25.039792261960088]},"id":"1_1_2_36","properties":{"Class":3,"class":2}},{"type":"Feature","geometry":{"type":"Point","coordinates":[91.51544457611634,25.042902774928045]},"id":"1_1_2_37","properties":{"Class":3,"class":2}},{"type":"Feature","geometry":{"type":"Point","coordinates":[91.41364937958313,25.01151811546601]},"id":"1_1_2_38","properties":{"Class":3,"class":2}},{"type":"Feature","geometry":{"type":"Point","coordinates":[91.414164363714,25.01112920621168]},"id":"1_1_2_39","properties":{"Class":3,"class":2}},{"type":"Feature","geometry":{"type":"Point","coordinates":[91.4145076864679,25.00864015782021]},"id":"1_1_2_40","properties":{"Class":3,"class":2}},{"type":"Feature","geometry":{"type":"Point","coordinates":[91.40729790863587,25.012529273763395]},"id":"1_1_2_41","properties":{"Class":3,"class":2}},{"type":"Feature","geometry":{"type":"Point","coordinates":[91.4064396017511,25.012762616803464]},"id":"1_1_2_42","properties":{"Class":3,"class":2}},{"type":"Feature","geometry":{"type":"Point","coordinates":[91.42446404633118,24.995494034429445]},"id":"1_1_2_43","properties":{"Class":3,"class":2}},{"type":"Feature","geometry":{"type":"Point","coordinates":[91.42506486115052,24.995105074444957]},"id":"1_1_2_44","properties":{"Class":3,"class":2}},{"type":"Feature","geometry":{"type":"Point","coordinates":[91.42523652252747,24.994327150782983]},"id":"1_1_2_45","properties":{"Class":3,"class":2}},{"type":"Feature","geometry":{"type":"Point","coordinates":[91.42523652252747,24.994015979939455]},"id":"1_1_2_46","properties":{"Class":3,"class":2}},{"type":"Feature","geometry":{"type":"Point","coordinates":[91.42635232147767,24.999616934578288]},"id":"1_1_2_47","properties":{"Class":3,"class":2}},{"type":"Feature","geometry":{"type":"Point","coordinates":[91.41201859650208,25.003506336209327]},"id":"1_1_2_48","properties":{"Class":3,"class":2}},{"type":"Feature","geometry":{"type":"Point","coordinates":[91.41167527374817,25.00233952864825]},"id":"1_1_2_49","properties":{"Class":3,"class":2}},{"type":"Feature","geometry":{"type":"Point","coordinates":[91.42781144318177,25.00864015782021]},"id":"1_1_2_50","properties":{"Class":3,"class":2}},{"type":"Feature","geometry":{"type":"Point","coordinates":[91.4284122580011,25.00864015782021]},"id":"1_1_2_51","properties":{"Class":3,"class":2}},{"type":"Feature","geometry":{"type":"Point","coordinates":[91.4284122580011,25.008017887840534]},"id":"1_1_2_52","properties":{"Class":3,"class":2}},{"type":"Feature","geometry":{"type":"Point","coordinates":[91.41296273407532,24.979983311977918]},"id":"1_1_2_53","properties":{"Class":3,"class":2}},{"type":"Feature","geometry":{"type":"Point","coordinates":[91.41253358063294,24.977338026103073]},"id":"1_1_2_54","properties":{"Class":3,"class":2}},{"type":"Feature","geometry":{"type":"Point","coordinates":[91.41373521027161,24.97554853575052]},"id":"1_1_2_55","properties":{"Class":3,"class":2}},{"type":"Feature","geometry":{"type":"Point","coordinates":[91.414164363714,24.977104615794367]},"id":"1_1_2_56","properties":{"Class":3,"class":2}},{"type":"Feature","geometry":{"type":"Point","coordinates":[91.41682511505677,24.977493632729455]},"id":"1_1_2_57","properties":{"Class":3,"class":2}},{"type":"Feature","geometry":{"type":"Point","coordinates":[91.41940003571108,24.97928309478327]},"id":"1_1_2_58","properties":{"Class":3,"class":2}},{"type":"Feature","geometry":{"type":"Point","coordinates":[91.3760555380304,24.997098492268645]},"id":"1_1_2_59","properties":{"Class":3,"class":2}},{"type":"Feature","geometry":{"type":"Point","coordinates":[91.37536889252259,24.99694291045385]},"id":"1_1_2_60","properties":{"Class":3,"class":2}},{"type":"Feature","geometry":{"type":"Point","coordinates":[91.37399560150696,24.996709537362307]},"id":"1_1_2_61","properties":{"Class":3,"class":2}},{"type":"Feature","geometry":{"type":"Point","coordinates":[91.37279397186829,24.996709537362307]},"id":"1_1_2_62","properties":{"Class":3,"class":2}},{"type":"Feature","geometry":{"type":"Point","coordinates":[91.8392366145248,24.80713120054602]},"id":"1_2_0","properties":{"Class":1,"class":3}},{"type":"Feature","geometry":{"type":"Point","coordinates":[91.8395799372787,24.80604044616465]},"id":"1_2_1","properties":{"Class":1,"class":3}},{"type":"Feature","geometry":{"type":"Point","coordinates":[91.84009492140956,24.805417153637613]},"id":"1_2_2","properties":{"Class":1,"class":3}},{"type":"Feature","geometry":{"type":"Point","coordinates":[91.84078156691737,24.804326384174615]},"id":"1_2_3","properties":{"Class":1,"class":3}},{"type":"Feature","geometry":{"type":"Point","coordinates":[91.8414682124252,24.803391431282133]},"id":"1_2_4","properties":{"Class":1,"class":3}},{"type":"Feature","geometry":{"type":"Point","coordinates":[91.842154857933,24.80198898872344]},"id":"1_2_5","properties":{"Class":1,"class":3}},{"type":"Feature","geometry":{"type":"Point","coordinates":[91.853141186058,24.78780784520907]},"id":"1_2_6","properties":{"Class":1,"class":3}},{"type":"Feature","geometry":{"type":"Point","coordinates":[91.85296952468106,24.788431226244192]},"id":"1_2_7","properties":{"Class":1,"class":3}},{"type":"Feature","geometry":{"type":"Point","coordinates":[91.85193955641932,24.789522135518705]},"id":"1_2_8","properties":{"Class":1,"class":3}},{"type":"Feature","geometry":{"type":"Point","coordinates":[91.85039460402675,24.789989665128374]},"id":"1_2_9","properties":{"Class":1,"class":3}},{"type":"Feature","geometry":{"type":"Point","coordinates":[91.84987961989589,24.79045719297607]},"id":"1_2_10","properties":{"Class":1,"class":3}},{"type":"Feature","geometry":{"type":"Point","coordinates":[91.85108124953456,24.79419735232393]},"id":"1_2_11","properties":{"Class":1,"class":3}},{"type":"Feature","geometry":{"type":"Point","coordinates":[91.70431077223964,24.804170559182154]},"id":"1_2_12","properties":{"Class":1,"class":3}},{"type":"Feature","geometry":{"type":"Point","coordinates":[91.70413911086268,24.804638033571905]},"id":"1_2_13","properties":{"Class":1,"class":3}},{"type":"Feature","geometry":{"type":"Point","coordinates":[91.70448243361659,24.805417153637613]},"id":"1_2_14","properties":{"Class":1,"class":3}},{"type":"Feature","geometry":{"type":"Point","coordinates":[91.7048257563705,24.80728702181702]},"id":"1_2_15","properties":{"Class":1,"class":3}},{"type":"Feature","geometry":{"type":"Point","coordinates":[91.7051690791244,24.807598663771383]},"id":"1_2_16","properties":{"Class":1,"class":3}},{"type":"Feature","geometry":{"type":"Point","coordinates":[91.70602738600917,24.809312680515]},"id":"1_2_17","properties":{"Class":1,"class":3}},{"type":"Feature","geometry":{"type":"Point","coordinates":[91.85691773635098,24.79419735232393]},"id":"1_2_18","properties":{"Class":1,"class":3}},{"type":"Feature","geometry":{"type":"Point","coordinates":[91.85674607497401,24.793106484163577]},"id":"1_2_19","properties":{"Class":1,"class":3}},{"type":"Feature","geometry":{"type":"Point","coordinates":[91.85777604323573,24.791080560698795]},"id":"1_2_20","properties":{"Class":1,"class":3}},{"type":"Feature","geometry":{"type":"Point","coordinates":[91.8586343501205,24.789366291923926]},"id":"1_2_21","properties":{"Class":1,"class":3}},{"type":"Feature","geometry":{"type":"Point","coordinates":[91.85880601149745,24.787963690761487]},"id":"1_2_22","properties":{"Class":1,"class":3}},{"type":"Feature","geometry":{"type":"Point","coordinates":[91.85880601149745,24.787651999460873]},"id":"1_2_23","properties":{"Class":1,"class":3}},{"type":"Feature","geometry":{"type":"Point","coordinates":[91.85880601149745,24.787028614510525]},"id":"1_2_24","properties":{"Class":1,"class":3}},{"type":"Feature","geometry":{"type":"Point","coordinates":[91.8589776728744,24.787340307377196]},"id":"1_2_25","properties":{"Class":1,"class":3}},{"type":"Feature","geometry":{"type":"Point","coordinates":[91.85932099562831,24.7873403073772]},"id":"1_2_26","properties":{"Class":1,"class":3}},{"type":"Feature","geometry":{"type":"Point","coordinates":[91.80833756667323,24.804170559182154]},"id":"1_2_27","properties":{"Class":1,"class":3}},{"type":"Feature","geometry":{"type":"Point","coordinates":[91.80833756667323,24.805417153637613]},"id":"1_2_28","properties":{"Class":1,"class":3}},{"type":"Feature","geometry":{"type":"Point","coordinates":[91.81039750319667,24.805417153637613]},"id":"1_2_29","properties":{"Class":1,"class":3}},{"type":"Feature","geometry":{"type":"Point","coordinates":[91.81056916457364,24.80557297706317]},"id":"1_2_30","properties":{"Class":1,"class":3}},{"type":"Feature","geometry":{"type":"Point","coordinates":[91.81125581008143,24.80557297706317]},"id":"1_2_31","properties":{"Class":1,"class":3}},{"type":"Feature","geometry":{"type":"Point","coordinates":[91.8121141169662,24.805884623326705]},"id":"1_2_32","properties":{"Class":1,"class":3}},{"type":"Feature","geometry":{"type":"Point","coordinates":[91.81228577834315,24.806040446164648]},"id":"1_2_33","properties":{"Class":1,"class":3}},{"type":"Feature","geometry":{"type":"Point","coordinates":[91.81228577834315,24.806196268806747]},"id":"1_2_34","properties":{"Class":1,"class":3}},{"type":"Feature","geometry":{"type":"Point","coordinates":[91.81280076247401,24.80619626880675]},"id":"1_2_35","properties":{"Class":1,"class":3}},{"type":"Feature","geometry":{"type":"Point","coordinates":[91.820182201683,24.810715040220977]},"id":"1_2_36","properties":{"Class":1,"class":3}},{"type":"Feature","geometry":{"type":"Point","coordinates":[91.820182201683,24.81227319906205]},"id":"1_2_37","properties":{"Class":1,"class":3}},{"type":"Feature","geometry":{"type":"Point","coordinates":[91.82069718581386,24.81242901386869]},"id":"1_2_38","properties":{"Class":1,"class":3}},{"type":"Feature","geometry":{"type":"Point","coordinates":[91.82172715407557,24.812429013868694]},"id":"1_2_39","properties":{"Class":1,"class":3}},{"type":"Feature","geometry":{"type":"Point","coordinates":[91.82292878371425,24.81242901386869]},"id":"1_2_40","properties":{"Class":1,"class":3}},{"type":"Feature","geometry":{"type":"Point","coordinates":[91.82327210646815,24.811026673556363]},"id":"1_2_41","properties":{"Class":1,"class":3}},{"type":"Feature","geometry":{"type":"Point","coordinates":[91.8450731013412,24.816635939593368]},"id":"1_2_42","properties":{"Class":1,"class":3}},{"type":"Feature","geometry":{"type":"Point","coordinates":[91.84541642409512,24.818038216428636]},"id":"1_2_43","properties":{"Class":1,"class":3}},{"type":"Feature","geometry":{"type":"Point","coordinates":[91.84610306960292,24.818817252257134]},"id":"1_2_44","properties":{"Class":1,"class":3}},{"type":"Feature","geometry":{"type":"Point","coordinates":[91.84661805373378,24.819440477392995]},"id":"1_2_45","properties":{"Class":1,"class":3}},{"type":"Feature","geometry":{"type":"Point","coordinates":[91.78859650832362,24.83455272696164]},"id":"1_2_46","properties":{"Class":1,"class":3}},{"type":"Feature","geometry":{"type":"Point","coordinates":[91.78859650832362,24.833929577868922]},"id":"1_2_47","properties":{"Class":1,"class":3}},{"type":"Feature","geometry":{"type":"Point","coordinates":[91.78859650832362,24.833618002146377]},"id":"1_2_48","properties":{"Class":1,"class":3}},{"type":"Feature","geometry":{"type":"Point","coordinates":[91.7901414607162,24.83221590169167]},"id":"1_2_49","properties":{"Class":1,"class":3}},{"type":"Feature","geometry":{"type":"Point","coordinates":[91.79082810622403,24.83221590169167]},"id":"1_2_50","properties":{"Class":1,"class":3}},{"type":"Feature","geometry":{"type":"Point","coordinates":[91.7904847834701,24.830969576847025]},"id":"1_2_51","properties":{"Class":1,"class":3}},{"type":"Feature","geometry":{"type":"Point","coordinates":[91.78945481520839,24.831125368138675]},"id":"1_2_52","properties":{"Class":1,"class":3}},{"type":"Feature","geometry":{"type":"Point","coordinates":[91.89399659377284,24.813831338312745]},"id":"1_2_53","properties":{"Class":1,"class":3}},{"type":"Feature","geometry":{"type":"Point","coordinates":[91.89468323928065,24.81429877626768]},"id":"1_2_54","properties":{"Class":1,"class":3}},{"type":"Feature","geometry":{"type":"Point","coordinates":[91.89468323928065,24.81429877626768]},"id":"1_2_55","properties":{"Class":1,"class":3}},{"type":"Feature","geometry":{"type":"Point","coordinates":[91.8948549006576,24.814142963811957]},"id":"1_2_56","properties":{"Class":1,"class":3}},{"type":"Feature","geometry":{"type":"Point","coordinates":[91.8948549006576,24.812896457113226]},"id":"1_2_57","properties":{"Class":1,"class":3}},{"type":"Feature","geometry":{"type":"Point","coordinates":[91.89468323928065,24.81180575346666]},"id":"1_2_58","properties":{"Class":1,"class":3}},{"type":"Feature","geometry":{"type":"Point","coordinates":[91.89468323928065,24.810715040220977]},"id":"1_2_59","properties":{"Class":1,"class":3}},{"type":"Feature","geometry":{"type":"Point","coordinates":[91.89468323928065,24.80946849904368]},"id":"1_2_60","properties":{"Class":1,"class":3}},{"type":"Feature","geometry":{"type":"Point","coordinates":[91.8948549006576,24.809001042870015]},"id":"1_2_61","properties":{"Class":1,"class":3}},{"type":"Feature","geometry":{"type":"Point","coordinates":[91.8948549006576,24.8085335849334]},"id":"1_2_62","properties":{"Class":1,"class":3}},{"type":"Feature","geometry":{"type":"Point","coordinates":[91.8948549006576,24.807442842892126]},"id":"1_2_63","properties":{"Class":1,"class":3}},{"type":"Feature","geometry":{"type":"Point","coordinates":[91.8948549006576,24.806663735557795]},"id":"1_2_64","properties":{"Class":1,"class":3}},{"type":"Feature","geometry":{"type":"Point","coordinates":[91.84181153517909,24.78219727495162]},"id":"1_2_65","properties":{"Class":1,"class":3}},{"type":"Feature","geometry":{"type":"Point","coordinates":[91.8414682124252,24.782508979954425]},"id":"1_2_66","properties":{"Class":1,"class":3}},{"type":"Feature","geometry":{"type":"Point","coordinates":[91.8414682124252,24.782508979954425]},"id":"1_2_67","properties":{"Class":1,"class":3}},{"type":"Feature","geometry":{"type":"Point","coordinates":[91.84009492140956,24.783599941298686]},"id":"1_2_68","properties":{"Class":1,"class":3}},{"type":"Feature","geometry":{"type":"Point","coordinates":[91.84078156691737,24.782820684174304]},"id":"1_2_69","properties":{"Class":1,"class":3}},{"type":"Feature","geometry":{"type":"Point","coordinates":[91.8176072810287,24.783288239036125]},"id":"1_2_70","properties":{"Class":1,"class":3}},{"type":"Feature","geometry":{"type":"Point","coordinates":[91.81640565139003,24.784067493224455]},"id":"1_2_71","properties":{"Class":1,"class":3}},{"type":"Feature","geometry":{"type":"Point","coordinates":[91.78155839186854,24.79450902717899]},"id":"1_2_72","properties":{"Class":1,"class":3}},{"type":"Feature","geometry":{"type":"Point","coordinates":[91.7820733759994,24.795288210890114]},"id":"1_2_73","properties":{"Class":1,"class":3}},{"type":"Feature","geometry":{"type":"Point","coordinates":[91.78276002150722,24.795911554334552]},"id":"1_2_74","properties":{"Class":1,"class":3}},{"type":"Feature","geometry":{"type":"Point","coordinates":[91.78276002150722,24.796690729234395]},"id":"1_2_75","properties":{"Class":1,"class":3}},{"type":"Feature","geometry":{"type":"Point","coordinates":[91.7817300532455,24.798249064347996]},"id":"1_2_76","properties":{"Class":1,"class":3}},{"type":"Feature","geometry":{"type":"Point","coordinates":[91.78155839186854,24.798716561063586]},"id":"1_2_77","properties":{"Class":1,"class":3}},{"type":"Feature","geometry":{"type":"Point","coordinates":[91.71289384108731,24.801988988723444]},"id":"1_2_78","properties":{"Class":1,"class":3}},{"type":"Feature","geometry":{"type":"Point","coordinates":[91.71426713210292,24.802923952191883]},"id":"1_2_79","properties":{"Class":1,"class":3}},{"type":"Feature","geometry":{"type":"Point","coordinates":[91.71409547072597,24.801677332667246]},"id":"1_2_80","properties":{"Class":1,"class":3}},{"type":"Feature","geometry":{"type":"Point","coordinates":[91.71375214797206,24.800742359798356]},"id":"1_2_81","properties":{"Class":1,"class":3}},{"type":"Feature","geometry":{"type":"Point","coordinates":[91.67924821120448,24.79201560640943]},"id":"1_2_82","properties":{"Class":1,"class":3}},{"type":"Feature","geometry":{"type":"Point","coordinates":[91.67856156569667,24.792794805784204]},"id":"1_2_83","properties":{"Class":1,"class":3}},{"type":"Feature","geometry":{"type":"Point","coordinates":[91.6799348567123,24.791703925289003]},"id":"1_2_84","properties":{"Class":1,"class":3}},{"type":"Feature","geometry":{"type":"Point","coordinates":[91.66877686721034,24.795444047044946]},"id":"1_2_85","properties":{"Class":1,"class":3}},{"type":"Feature","geometry":{"type":"Point","coordinates":[91.67203843337245,24.79544404704494]},"id":"1_2_86","properties":{"Class":1,"class":3}},{"type":"Feature","geometry":{"type":"Point","coordinates":[91.67238175612636,24.79544404704494]},"id":"1_2_87","properties":{"Class":1,"class":3}},{"type":"Feature","geometry":{"type":"Point","coordinates":[91.67306840163417,24.795288210890114]},"id":"1_2_88","properties":{"Class":1,"class":3}},{"type":"Feature","geometry":{"type":"Point","coordinates":[91.67324006301112,24.79528821089012]},"id":"1_2_89","properties":{"Class":1,"class":3}},{"type":"Feature","geometry":{"type":"Point","coordinates":[91.67461335402675,24.794353189849343]},"id":"1_2_90","properties":{"Class":1,"class":3}},{"type":"Feature","geometry":{"type":"Point","coordinates":[91.67461335402675,24.794353189849343]},"id":"1_2_91","properties":{"Class":1,"class":3}},{"type":"Feature","geometry":{"type":"Point","coordinates":[91.74138962966151,24.81928467140293]},"id":"1_2_92","properties":{"Class":1,"class":3}},{"type":"Feature","geometry":{"type":"Point","coordinates":[91.73950135451503,24.81523364688784]},"id":"1_2_93","properties":{"Class":1,"class":3}},{"type":"Feature","geometry":{"type":"Point","coordinates":[91.73950135451503,24.81523364688784]},"id":"1_2_94","properties":{"Class":1,"class":3}},{"type":"Feature","geometry":{"type":"Point","coordinates":[91.83065354567714,24.81741498423897]},"id":"1_2_95","properties":{"Class":1,"class":3}},{"type":"Feature","geometry":{"type":"Point","coordinates":[91.83065354567714,24.81788240867513]},"id":"1_2_96","properties":{"Class":1,"class":3}},{"type":"Feature","geometry":{"type":"Point","coordinates":[91.83065354567714,24.817259175701714]},"id":"1_2_97","properties":{"Class":1,"class":3}},{"type":"Feature","geometry":{"type":"Point","coordinates":[91.9381135676498,24.826763137883212]},"id":"1_2_98","properties":{"Class":1,"class":3}},{"type":"Feature","geometry":{"type":"Point","coordinates":[91.93914353591153,24.82645154412795]},"id":"1_2_99","properties":{"Class":1,"class":3}},{"type":"Feature","geometry":{"type":"Point","coordinates":[91.93965852004237,24.826139949588757]},"id":"1_2_100","properties":{"Class":1,"class":3}},{"type":"Feature","geometry":{"type":"Point","coordinates":[91.93948685866542,24.825672556310053]},"id":"1_2_101","properties":{"Class":1,"class":3}},{"type":"Feature","geometry":{"type":"Point","coordinates":[91.87082230788417,24.79591155433454]},"id":"1_2_102","properties":{"Class":1,"class":3}},{"type":"Feature","geometry":{"type":"Point","coordinates":[91.87202393752284,24.794664864312818]},"id":"1_2_103","properties":{"Class":1,"class":3}},{"type":"Feature","geometry":{"type":"Point","coordinates":[91.8728822444076,24.793106484163577]},"id":"1_2_104","properties":{"Class":1,"class":3}},{"type":"Feature","geometry":{"type":"Point","coordinates":[91.8323810250068,24.898077920154297]},"id":"1_2_105","properties":{"Class":1,"class":3}},{"type":"Feature","geometry":{"type":"Point","coordinates":[91.83212353294137,24.898077920154297]},"id":"1_2_106","properties":{"Class":1,"class":3}},{"type":"Feature","geometry":{"type":"Point","coordinates":[91.83212353294137,24.897844359659896]},"id":"1_2_107","properties":{"Class":1,"class":3}},{"type":"Feature","geometry":{"type":"Point","coordinates":[91.83195187156441,24.89714367552532]},"id":"1_2_108","properties":{"Class":1,"class":3}},{"type":"Feature","geometry":{"type":"Point","coordinates":[91.83178021018747,24.89706582148707]},"id":"1_2_109","properties":{"Class":1,"class":3}},{"type":"Feature","geometry":{"type":"Point","coordinates":[91.8327243477607,24.897065821487075]},"id":"1_2_110","properties":{"Class":1,"class":3}},{"type":"Feature","geometry":{"type":"Point","coordinates":[91.83358265464547,24.898077920154297]},"id":"1_2_111","properties":{"Class":1,"class":3}},{"type":"Feature","geometry":{"type":"Point","coordinates":[91.83358265464547,24.89831148020677]},"id":"1_2_112","properties":{"Class":1,"class":3}},{"type":"Feature","geometry":{"type":"Point","coordinates":[91.83323933189156,24.899012157712804]},"id":"1_2_113","properties":{"Class":1,"class":3}},{"type":"Feature","geometry":{"type":"Point","coordinates":[91.83323933189156,24.899634978823695]},"id":"1_2_114","properties":{"Class":1,"class":3}},{"type":"Feature","geometry":{"type":"Point","coordinates":[91.77315784995797,24.901503423300706]},"id":"2_0","properties":{"Class":2,"class":4}},{"type":"Feature","geometry":{"type":"Point","coordinates":[91.7737586647773,24.90298258845217]},"id":"2_1","properties":{"Class":2,"class":4}},{"type":"Feature","geometry":{"type":"Point","coordinates":[91.77470280235055,24.904228187461207]},"id":"2_2","properties":{"Class":2,"class":4}},{"type":"Feature","geometry":{"type":"Point","coordinates":[91.78637577598336,24.904773133074396]},"id":"2_3","properties":{"Class":2,"class":4}},{"type":"Feature","geometry":{"type":"Point","coordinates":[91.78706242149119,24.9047731330744]},"id":"2_4","properties":{"Class":2,"class":4}},{"type":"Feature","geometry":{"type":"Point","coordinates":[91.78637577598336,24.90446173587581]},"id":"2_5","properties":{"Class":2,"class":4}},{"type":"Feature","geometry":{"type":"Point","coordinates":[91.7939288765693,24.90936615047862]},"id":"2_6","properties":{"Class":2,"class":4}},{"type":"Feature","geometry":{"type":"Point","coordinates":[91.7942721993232,24.909599689168797]},"id":"2_7","properties":{"Class":2,"class":4}},{"type":"Feature","geometry":{"type":"Point","coordinates":[91.79401470725777,24.909599689168797]},"id":"2_8","properties":{"Class":2,"class":4}},{"type":"Feature","geometry":{"type":"Point","coordinates":[91.81452824180367,24.908354144379732]},"id":"2_9","properties":{"Class":2,"class":4}},{"type":"Feature","geometry":{"type":"Point","coordinates":[91.8144424111152,24.907964909054606]},"id":"2_10","properties":{"Class":2,"class":4}},{"type":"Feature","geometry":{"type":"Point","coordinates":[91.81495739524605,24.908354144379732]},"id":"2_11","properties":{"Class":2,"class":4}},{"type":"Feature","geometry":{"type":"Point","coordinates":[91.7532451302314,24.904850982251283]},"id":"2_12","properties":{"Class":2,"class":4}},{"type":"Feature","geometry":{"type":"Point","coordinates":[91.75273014610055,24.904850982251283]},"id":"2_13","properties":{"Class":2,"class":4}},{"type":"Feature","geometry":{"type":"Point","coordinates":[91.74285961692574,24.90547377389828]},"id":"2_14","properties":{"Class":2,"class":4}},{"type":"Feature","geometry":{"type":"Point","coordinates":[91.74380375449898,24.90539592511429]},"id":"2_15","properties":{"Class":2,"class":4}},{"type":"Feature","geometry":{"type":"Point","coordinates":[91.74414707725289,24.90539592511429]},"id":"2_16","properties":{"Class":2,"class":4}},{"type":"Feature","geometry":{"type":"Point","coordinates":[91.74637867515328,24.908509838165987]},"id":"2_17","properties":{"Class":2,"class":4}},{"type":"Feature","geometry":{"type":"Point","coordinates":[91.74637867515328,24.908276297412936]},"id":"2_18","properties":{"Class":2,"class":4}},{"type":"Feature","geometry":{"type":"Point","coordinates":[91.7195995003486,24.883051294893328]},"id":"2_19","properties":{"Class":2,"class":4}},{"type":"Feature","geometry":{"type":"Point","coordinates":[91.7195995003486,24.883051294893328]},"id":"2_20","properties":{"Class":2,"class":4}},{"type":"Feature","geometry":{"type":"Point","coordinates":[91.71968533103707,24.88258411661732]},"id":"2_21","properties":{"Class":2,"class":4}},{"type":"Feature","geometry":{"type":"Point","coordinates":[91.72011448447945,24.88258411661732]},"id":"2_22","properties":{"Class":2,"class":4}},{"type":"Feature","geometry":{"type":"Point","coordinates":[91.70595242088082,24.926751153245537]},"id":"2_23","properties":{"Class":2,"class":4}},{"type":"Feature","geometry":{"type":"Point","coordinates":[91.70629574363473,24.926284140374026]},"id":"2_24","properties":{"Class":2,"class":4}},{"type":"Feature","geometry":{"type":"Point","coordinates":[91.7063815743232,24.925894961629716]},"id":"2_25","properties":{"Class":2,"class":4}},{"type":"Feature","geometry":{"type":"Point","coordinates":[91.7060382515693,24.92605063327488]},"id":"2_26","properties":{"Class":2,"class":4}},{"type":"Feature","geometry":{"type":"Point","coordinates":[91.69771267478707,24.934145287936587]},"id":"2_27","properties":{"Class":2,"class":4}},{"type":"Feature","geometry":{"type":"Point","coordinates":[91.69719769065621,24.934145287936587]},"id":"2_28","properties":{"Class":2,"class":4}},{"type":"Feature","geometry":{"type":"Point","coordinates":[91.69736935203316,24.933756134011343]},"id":"2_29","properties":{"Class":2,"class":4}},{"type":"Feature","geometry":{"type":"Point","coordinates":[91.69779850547555,24.933756134011343]},"id":"2_30","properties":{"Class":2,"class":4}},{"type":"Feature","geometry":{"type":"Point","coordinates":[91.77092625205758,24.942083759765648]},"id":"2_31","properties":{"Class":2,"class":4}},{"type":"Feature","geometry":{"type":"Point","coordinates":[91.77212788169625,24.942083759765648]},"id":"2_32","properties":{"Class":2,"class":4}},{"type":"Feature","geometry":{"type":"Point","coordinates":[91.77367283408883,24.94216158538908]},"id":"2_33","properties":{"Class":2,"class":4}},{"type":"Feature","geometry":{"type":"Point","coordinates":[91.7748744637275,24.942083759765648]},"id":"2_34","properties":{"Class":2,"class":4}},{"type":"Feature","geometry":{"type":"Point","coordinates":[91.77916599815134,24.97114485848712]},"id":"2_35","properties":{"Class":2,"class":4}},{"type":"Feature","geometry":{"type":"Point","coordinates":[91.77916599815134,24.97083362897553]},"id":"2_36","properties":{"Class":2,"class":4}},{"type":"Feature","geometry":{"type":"Point","coordinates":[91.76878048484566,24.969355278044162]},"id":"2_37","properties":{"Class":2,"class":4}},{"type":"Feature","geometry":{"type":"Point","coordinates":[91.76800800864937,24.969666511295316]},"id":"2_38","properties":{"Class":2,"class":4}},{"type":"Feature","geometry":{"type":"Point","coordinates":[91.76749302451852,24.969510894768167]},"id":"2_39","properties":{"Class":2,"class":4}},{"type":"Feature","geometry":{"type":"Point","coordinates":[91.76809383933785,24.96888842669131]},"id":"2_40","properties":{"Class":2,"class":4}},{"type":"Feature","geometry":{"type":"Point","coordinates":[91.91251388987838,24.927361489227728]},"id":"2_41","properties":{"Class":2,"class":4}},{"type":"Feature","geometry":{"type":"Point","coordinates":[91.91268555125534,24.927127984169122]},"id":"2_42","properties":{"Class":2,"class":4}},{"type":"Feature","geometry":{"type":"Point","coordinates":[91.91285721263229,24.92666097272512]},"id":"2_43","properties":{"Class":2,"class":4}},{"type":"Feature","geometry":{"type":"Point","coordinates":[91.91285721263229,24.926505301850646]},"id":"2_44","properties":{"Class":2,"class":4}},{"type":"Feature","geometry":{"type":"Point","coordinates":[91.83804061600149,24.857684818260395]},"id":"2_45","properties":{"Class":2,"class":4}},{"type":"Feature","geometry":{"type":"Point","coordinates":[91.83821227737845,24.857061785649716]},"id":"2_46","properties":{"Class":2,"class":4}},{"type":"Feature","geometry":{"type":"Point","coordinates":[91.8383839387554,24.85675026816738]},"id":"2_47","properties":{"Class":2,"class":4}},{"type":"Feature","geometry":{"type":"Point","coordinates":[91.83881309219778,24.855971471028724]},"id":"2_48","properties":{"Class":2,"class":4}},{"type":"Feature","geometry":{"type":"Point","coordinates":[91.83228995987356,24.851921646858813]},"id":"2_49","properties":{"Class":2,"class":4}},{"type":"Feature","geometry":{"type":"Point","coordinates":[91.82018783279837,24.839696802527353]},"id":"2_50","properties":{"Class":2,"class":4}},{"type":"Feature","geometry":{"type":"Point","coordinates":[91.82027366348684,24.83891789803918]},"id":"2_51","properties":{"Class":2,"class":4}},{"type":"Feature","geometry":{"type":"Point","coordinates":[91.72529630714405,24.848809620846513]},"id":"2_52","properties":{"Class":2,"class":4}},{"type":"Feature","geometry":{"type":"Point","coordinates":[91.69516973548878,24.863840409918335]},"id":"2_53","properties":{"Class":2,"class":4}},{"type":"Feature","geometry":{"type":"Point","coordinates":[91.69516973548878,24.863217408321344]},"id":"2_54","properties":{"Class":2,"class":4}},{"type":"Feature","geometry":{"type":"Point","coordinates":[91.63600178043309,24.821078282424143]},"id":"2_55","properties":{"Class":2,"class":4}},{"type":"Feature","geometry":{"type":"Point","coordinates":[91.63565845767918,24.820532967810983]},"id":"2_56","properties":{"Class":2,"class":4}},{"type":"Feature","geometry":{"type":"Point","coordinates":[91.74664489336158,25.151758496507405]},"id":"2_57","properties":{"Class":2,"class":4}},{"type":"Feature","geometry":{"type":"Point","coordinates":[91.7490481526389,25.151758496507405]},"id":"2_58","properties":{"Class":2,"class":4}},{"type":"Feature","geometry":{"type":"Point","coordinates":[91.74801818437719,25.150826180891727]},"id":"2_59","properties":{"Class":2,"class":4}},{"type":"Feature","geometry":{"type":"Point","coordinates":[91.74973479814672,25.128448469685395]},"id":"2_60","properties":{"Class":2,"class":4}},{"type":"Feature","geometry":{"type":"Point","coordinates":[91.75282470293187,25.170714035502584]},"id":"2_61","properties":{"Class":2,"class":4}},{"type":"Feature","geometry":{"type":"Point","coordinates":[91.75351134843969,25.169160413640753]},"id":"2_62","properties":{"Class":2,"class":4}},{"type":"Feature","geometry":{"type":"Point","coordinates":[91.89015380449437,25.10668843066807]},"id":"2_63","properties":{"Class":2,"class":4}},{"type":"Feature","geometry":{"type":"Point","coordinates":[91.89152709551,25.10917548834052]},"id":"2_64","properties":{"Class":2,"class":4}},{"type":"Feature","geometry":{"type":"Point","coordinates":[91.78853026933812,25.066266656020357]},"id":"2_65","properties":{"Class":2,"class":4}},{"type":"Feature","geometry":{"type":"Point","coordinates":[91.78853026933812,25.066888630571682]},"id":"2_66","properties":{"Class":2,"class":4}},{"type":"Feature","geometry":{"type":"Point","coordinates":[91.78853026933812,25.06471170582607]},"id":"2_67","properties":{"Class":2,"class":4}},{"type":"Feature","geometry":{"type":"Point","coordinates":[91.65257445879125,25.11881235894412]},"id":"2_68","properties":{"Class":2,"class":4}},{"type":"Feature","geometry":{"type":"Point","coordinates":[91.65429107256078,25.12254255647925]},"id":"2_69","properties":{"Class":2,"class":4}},{"type":"Feature","geometry":{"type":"Point","coordinates":[91.65600768633031,25.120366621755043]},"id":"2_70","properties":{"Class":2,"class":4}},{"type":"Feature","geometry":{"type":"Point","coordinates":[91.65326110429908,25.120366621755043]},"id":"2_71","properties":{"Class":2,"class":4}}]}